[
    {
        "Altitude(m)": 559576.7091402793,
        "Argument of Periapsis(deg)": 0.019868973332140504,
        "Eccentricity": 0.0,
        "Inclination(deg)": 53.0,
        "Latitude(deg)": 51.72415113891264,
        "Longitude(deg)": 25.857406516555177,
        "Mean Anomaly(deg)": 101.18387860273276,
        "RAAN(deg)": 19.97043010558405,
        "Satellite Name": "Starlink Shell 1 92",
        "Satellite Number": 92,
        "Semi-Major Axis(m)": 6931778.249405717,
        "Time(s)": 570
    },
    {
        "Altitude(m)": 559540.0579371821,
        "Argument of Periapsis(deg)": 0.02021755181165174,
        "Eccentricity": 0.0,
        "Inclination(deg)": 53.0,
        "Latitude(deg)": 51.563365901562506,
        "Longitude(deg)": 26.789855068848226,
        "Mean Anomaly(deg)": 101.81070980628948,
        "RAAN(deg)": 19.969911335506577,
        "Satellite Name": "Starlink Shell 1 92",
        "Satellite Number": 92,
        "Semi-Major Axis(m)": 6931778.249405717,
        "Time(s)": 580
    },
    {
        "Altitude(m)": 559501.5551404669,
        "Argument of Periapsis(deg)": 0.020566130291162974,
        "Eccentricity": 0.0,
        "Inclination(deg)": 53.0,
        "Latitude(deg)": 51.3945581432371,
        "Longitude(deg)": 27.715295319802852,
        "Mean Anomaly(deg)": 102.4375410098462,
        "RAAN(deg)": 19.969392565429107,
        "Satellite Name": "Starlink Shell 1 92",
        "Satellite Number": 92,
        "Semi-Major Axis(m)": 6931778.249405717,
        "Time(s)": 590
    },
    {
        "Altitude(m)": 559461.2240442976,
        "Argument of Periapsis(deg)": 0.020914708770674213,
        "Eccentricity": 0.0,
        "Inclination(deg)": 53.0,
        "Latitude(deg)": 51.21783389633157,
        "Longitude(deg)": 28.63348629302118,
        "Mean Anomaly(deg)": 103.06437221340292,
        "RAAN(deg)": 19.96887379535163,
        "Satellite Name": "Starlink Shell 1 92",
        "Satellite Number": 92,
        "Semi-Major Axis(m)": 6931778.249405717,
        "Time(s)": 600
    },
    {
        "Altitude(m)": 559419.0890661493,
        "Argument of Periapsis(deg)": 0.021263287250185448,
        "Eccentricity": 0.0,
        "Inclination(deg)": 53.0,
        "Latitude(deg)": 51.033302214835466,
        "Longitude(deg)": 29.544203437828312,
        "Mean Anomaly(deg)": 103.69120341695964,
        "RAAN(deg)": 19.968355025274157,
        "Satellite Name": "Starlink Shell 1 92",
        "Satellite Number": 92,
        "Semi-Major Axis(m)": 6931778.249405717,
        "Time(s)": 610
    },
    {
        "Altitude(m)": 559375.1757348438,
        "Argument of Periapsis(deg)": 0.021611865729696686,
        "Eccentricity": 0.0,
        "Inclination(deg)": 53.0,
        "Latitude(deg)": 50.84107488895254,
        "Longitude(deg)": 30.447239155899737,
        "Mean Anomaly(deg)": 104.31803462051633,
        "RAAN(deg)": 19.967836255196683,
        "Satellite Name": "Starlink Shell 1 92",
        "Satellite Number": 92,
        "Semi-Major Axis(m)": 6931778.249405717,
        "Time(s)": 620
    },
    {
        "Altitude(m)": 559329.5106780487,
        "Argument of Periapsis(deg)": 0.02196044420920792,
        "Eccentricity": 0.0,
        "Inclination(deg)": 53.0,
        "Latitude(deg)": 50.64126616260925,
        "Longitude(deg)": 31.342401574256034,
        "Mean Anomaly(deg)": 104.94486582407306,
        "RAAN(deg)": 19.967317485119214,
        "Satellite Name": "Starlink Shell 1 92",
        "Satellite Number": 92,
        "Semi-Major Axis(m)": 6931778.249405717,
        "Time(s)": 630
    },
    {
        "Altitude(m)": 559282.1216092311,
        "Argument of Periapsis(deg)": 0.02230902268871916,
        "Eccentricity": 0.0,
        "Inclination(deg)": 53.0,
        "Latitude(deg)": 50.43399245518342,
        "Longitude(deg)": 32.229515771410796,
        "Mean Anomaly(deg)": 105.57169702762977,
        "RAAN(deg)": 19.96679871504174,
        "Satellite Name": "Starlink Shell 1 92",
        "Satellite Number": 92,
        "Semi-Major Axis(m)": 6931778.249405717,
        "Time(s)": 640
    },
    {
        "Altitude(m)": 559233.0373140536,
        "Argument of Periapsis(deg)": 0.022657601168230398,
        "Eccentricity": 0.0,
        "Inclination(deg)": 53.0,
        "Latitude(deg)": 50.21937208865537,
        "Longitude(deg)": 33.108422418446736,
        "Mean Anomaly(deg)": 106.19852823118646,
        "RAAN(deg)": 19.966279944964267,
        "Satellite Name": "Starlink Shell 1 92",
        "Satellite Number": 92,
        "Semi-Major Axis(m)": 6931778.249405717,
        "Time(s)": 650
    },
    {
        "Altitude(m)": 559182.2876362615,
        "Argument of Periapsis(deg)": 0.023006179647741636,
        "Eccentricity": 0.0,
        "Inclination(deg)": 53.0,
        "Latitude(deg)": 49.99752502128465,
        "Longitude(deg)": 33.97897804238394,
        "Mean Anomaly(deg)": 106.8253594347432,
        "RAAN(deg)": 19.965761174886794,
        "Satellite Name": "Starlink Shell 1 92",
        "Satellite Number": 92,
        "Semi-Major Axis(m)": 6931778.249405717,
        "Time(s)": 660
    },
    {
        "Altitude(m)": 559129.9034630213,
        "Argument of Periapsis(deg)": 0.023354758127252868,
        "Eccentricity": 0.0,
        "Inclination(deg)": 53.0,
        "Latitude(deg)": 49.76857258878531,
        "Longitude(deg)": 34.84105523597303,
        "Mean Anomaly(deg)": 107.45219063829992,
        "RAAN(deg)": 19.965242404809324,
        "Satellite Name": "Starlink Shell 1 92",
        "Satellite Number": 92,
        "Semi-Major Axis(m)": 6931778.249405717,
        "Time(s)": 670
    },
    {
        "Altitude(m)": 559075.9167097475,
        "Argument of Periapsis(deg)": 0.023703336606764106,
        "Eccentricity": 0.0,
        "Inclination(deg)": 53.0,
        "Latitude(deg)": 49.53263725385364,
        "Longitude(deg)": 35.694541306245874,
        "Mean Anomaly(deg)": 108.07902184185664,
        "RAAN(deg)": 19.96472363473185,
        "Satellite Name": "Starlink Shell 1 92",
        "Satellite Number": 92,
        "Semi-Major Axis(m)": 6931778.249405717,
        "Time(s)": 680
    },
    {
        "Altitude(m)": 559020.3603044115,
        "Argument of Periapsis(deg)": 0.024051915086275345,
        "Eccentricity": 0.0,
        "Inclination(deg)": 53.0,
        "Latitude(deg)": 49.28984236479137,
        "Longitude(deg)": 36.53933839280469,
        "Mean Anomaly(deg)": 108.70585304541335,
        "RAAN(deg)": 19.964204864654377,
        "Satellite Name": "Starlink Shell 1 92",
        "Satellite Number": 92,
        "Semi-Major Axis(m)": 6931778.249405717,
        "Time(s)": 690
    },
    {
        "Altitude(m)": 558963.2681713437,
        "Argument of Periapsis(deg)": 0.024400493565786583,
        "Eccentricity": 0.0,
        "Inclination(deg)": 53.0,
        "Latitude(deg)": 49.040311923843106,
        "Longitude(deg)": 37.3753635481785,
        "Mean Anomaly(deg)": 109.33268424897005,
        "RAAN(deg)": 19.963686094576904,
        "Satellite Name": "Starlink Shell 1 92",
        "Satellite Number": 92,
        "Semi-Major Axis(m)": 6931778.249405717,
        "Time(s)": 700
    },
    {
        "Altitude(m)": 558904.6752145217,
        "Argument of Periapsis(deg)": 0.024749072045297815,
        "Eccentricity": 0.0,
        "Inclination(deg)": 53.0,
        "Latitude(deg)": 48.78417036575396,
        "Longitude(deg)": 38.20254727248848,
        "Mean Anomaly(deg)": 109.95951545252679,
        "RAAN(deg)": 19.96316732449943,
        "Satellite Name": "Starlink Shell 1 92",
        "Satellite Number": 92,
        "Semi-Major Axis(m)": 6931778.249405717,
        "Time(s)": 710
    },
    {
        "Altitude(m)": 558844.617300383,
        "Argument of Periapsis(deg)": 0.025097650524809053,
        "Eccentricity": 0.0,
        "Inclination(deg)": 53.0,
        "Latitude(deg)": 48.521542346952096,
        "Longitude(deg)": 39.020833533152995,
        "Mean Anomaly(deg)": 110.58634665608349,
        "RAAN(deg)": 19.962648554421957,
        "Satellite Name": "Starlink Shell 1 92",
        "Satellite Number": 92,
        "Semi-Major Axis(m)": 6931778.249405717,
        "Time(s)": 720
    },
    {
        "Altitude(m)": 558783.1312401333,
        "Argument of Periapsis(deg)": 0.02544622900432029,
        "Eccentricity": 0.0,
        "Inclination(deg)": 53.0,
        "Latitude(deg)": 48.25255254565229,
        "Longitude(deg)": 39.83017976155957,
        "Mean Anomaly(deg)": 111.2131778596402,
        "RAAN(deg)": 19.962129784344487,
        "Satellite Name": "Starlink Shell 1 92",
        "Satellite Number": 92,
        "Semi-Major Axis(m)": 6931778.249405717,
        "Time(s)": 730
    },
    {
        "Altitude(m)": 558720.2547715837,
        "Argument of Periapsis(deg)": 0.02579480748383153,
        "Eccentricity": 0.0,
        "Inclination(deg)": 53.0,
        "Latitude(deg)": 47.97732547307806,
        "Longitude(deg)": 40.63055531842181,
        "Mean Anomaly(deg)": 111.8400090631969,
        "RAAN(deg)": 19.961611014267014,
        "Satellite Name": "Starlink Shell 1 92",
        "Satellite Number": 92,
        "Semi-Major Axis(m)": 6931778.249405717,
        "Time(s)": 740
    },
    {
        "Altitude(m)": 558656.0265405112,
        "Argument of Periapsis(deg)": 0.026143385963342765,
        "Eccentricity": 0.0,
        "Inclination(deg)": 53.0,
        "Latitude(deg)": 47.69598529591977,
        "Longitude(deg)": 41.421941457920234,
        "Mean Anomaly(deg)": 112.46684026675361,
        "RAAN(deg)": 19.961092244189537,
        "Satellite Name": "Starlink Shell 1 92",
        "Satellite Number": 92,
        "Semi-Major Axis(m)": 6931778.249405717,
        "Time(s)": 750
    }
]